{
  "type": "FeatureCollection",
  "features": [
    {
      "type": "Feature",
      "properties": {
        "norad_id": 31531,
        "name": "FENGYUN 1C DEB",
        "group": "fengyun-1c-debris",
        "lat": 14.444339456629217,
        "lon": 34.74061225882516,
        "alt_km": 864.925761519693,
        "timestamp": "2025-12-18T07:01:54.872677+00:00",
        "meta_object_name": "FENGYUN 1C DEB",
        "meta_object_id": "1999-025BXW",
        "meta_epoch": "2025-12-15T20:25:10.111008",
        "meta_mean_motion": 14.35669626,
        "meta_eccentricity": 0.02439564,
        "meta_inclination": 98.3829,
        "meta_ra_of_asc_node": 34.5409,
        "meta_arg_of_pericenter": 259.2903,
        "meta_mean_anomaly": 98.0732,
        "meta_ephemeris_type": 0,
        "meta_classification_type": "U",
        "meta_norad_cat_id": 31531,
        "meta_element_set_no": 999,
        "meta_rev_at_epoch": 63979,
        "meta_bstar": 0.00065093757,
        "meta_mean_motion_dot": 2.583e-05,
        "meta_mean_motion_ddot": 0,
        "tle_line1": "1 31531U 99025BXW 25349.85081147  .00002583  00000+0  65094-3 0  9999",
        "tle_line2": "2 31531  98.3829  34.5409 0243956 259.2903  98.0732 14.35669626639799"
      },
      "geometry": {
        "type": "Point",
        "coordinates": [
          34.74061225882516,
          14.444339456629217
        ]
      }
    },
    {
      "type": "Feature",
      "properties": {
        "norad_id": 31533,
        "name": "FENGYUN 1C DEB",
        "group": "fengyun-1c-debris",
        "lat": 18.09188762491668,
        "lon": -118.37143119965431,
        "alt_km": 766.5349346962757,
        "timestamp": "2025-12-18T07:01:54.872687+00:00",
        "meta_object_name": "FENGYUN 1C DEB",
        "meta_object_id": "1999-025BXY",
        "meta_epoch": "2025-12-17T10:45:46.183680",
        "meta_mean_motion": 14.27637495,
        "meta_eccentricity": 0.00653889,
        "meta_inclination": 98.9606,
        "meta_ra_of_asc_node": 243.7176,
        "meta_arg_of_pericenter": 335.9648,
        "meta_mean_anomaly": 23.8484,
        "meta_ephemeris_type": 0,
        "meta_classification_type": "U",
        "meta_norad_cat_id": 31533,
        "meta_element_set_no": 999,
        "meta_rev_at_epoch": 66190,
        "meta_bstar": 0.00033965008,
        "meta_mean_motion_dot": 8.09e-06,
        "meta_mean_motion_ddot": 0,
        "tle_line1": "1 31533U 99025BXY 25351.44845120  .00000809  00000+0  33965-3 0  9999",
        "tle_line2": "2 31533  98.9606 243.7176 0065388 335.9648  23.8484 14.27637495661902"
      },
      "geometry": {
        "type": "Point",
        "coordinates": [
          -118.37143119965431,
          18.09188762491668
        ]
      }
    },
    {
      "type": "Feature",
      "properties": {
        "norad_id": 31535,
        "name": "FENGYUN 1C DEB",
        "group": "fengyun-1c-debris",
        "lat": 7.613340847118,
        "lon": -159.30194648572635,
        "alt_km": 846.0330746482996,
        "timestamp": "2025-12-18T07:01:54.872697+00:00",
        "meta_object_name": "FENGYUN 1C DEB",
        "meta_object_id": "1999-025BYA",
        "meta_epoch": "2025-12-08T20:01:31.264032",
        "meta_mean_motion": 14.28309987,
        "meta_eccentricity": 0.00876599,
        "meta_inclination": 98.0348,
        "meta_ra_of_asc_node": 193.0693,
        "meta_arg_of_pericenter": 174.5726,
        "meta_mean_anomaly": 185.6428,
        "meta_ephemeris_type": 0,
        "meta_classification_type": "U",
        "meta_norad_cat_id": 31535,
        "meta_element_set_no": 999,
        "meta_rev_at_epoch": 71875,
        "meta_bstar": 0.0012494375,
        "meta_mean_motion_dot": 3.212e-05,
        "meta_mean_motion_ddot": 0,
        "tle_line1": "1 31535U 99025BYA 25342.83438963  .00003212  00000+0  12494-2 0  9991",
        "tle_line2": "2 31535  98.0348 193.0693 0087659 174.5726 185.6428 14.28309987718752"
      },
      "geometry": {
        "type": "Point",
        "coordinates": [
          -159.30194648572635,
          7.613340847118
        ]
      }
    },
    {
      "type": "Feature",
      "properties": {
        "norad_id": 31536,
        "name": "FENGYUN 1C DEB",
        "group": "fengyun-1c-debris",
        "lat": 11.797111266222986,
        "lon": -102.14249905603506,
        "alt_km": 797.6516498058709,
        "timestamp": "2025-12-18T07:01:54.872707+00:00",
        "meta_object_name": "FENGYUN 1C DEB",
        "meta_object_id": "1999-025BYB",
        "meta_epoch": "2025-12-17T04:33:23.390784",
        "meta_mean_motion": 14.5437868,
        "meta_eccentricity": 0.02945462,
        "meta_inclination": 98.2369,
        "meta_ra_of_asc_node": 258.5034,
        "meta_arg_of_pericenter": 130.9893,
        "meta_mean_anomaly": 231.7187,
        "meta_ephemeris_type": 0,
        "meta_classification_type": "U",
        "meta_norad_cat_id": 31536,
        "meta_element_set_no": 999,
        "meta_rev_at_epoch": 96322,
        "meta_bstar": 0.00065842006,
        "meta_mean_motion_dot": 4.963e-05,
        "meta_mean_motion_ddot": 0,
        "tle_line1": "1 31536U 99025BYB 25351.18985406  .00004963  00000+0  65842-3 0  9999",
        "tle_line2": "2 31536  98.2369 258.5034 0294546 130.9893 231.7187 14.54378680963224"
      },
      "geometry": {
        "type": "Point",
        "coordinates": [
          -102.14249905603506,
          11.797111266222986
        ]
      }
    },
    {
      "type": "Feature",
      "properties": {
        "norad_id": 31537,
        "name": "FENGYUN 1C DEB",
        "group": "fengyun-1c-debris",
        "lat": 68.80561898853023,
        "lon": 120.76445673587675,
        "alt_km": 944.9802748067559,
        "timestamp": "2025-12-18T07:01:54.872717+00:00",
        "meta_object_name": "FENGYUN 1C DEB",
        "meta_object_id": "1999-025BYC",
        "meta_epoch": "2025-12-17T05:20:33.052992",
        "meta_mean_motion": 14.20381153,
        "meta_eccentricity": 0.03486583,
        "meta_inclination": 99.2923,
        "meta_ra_of_asc_node": 144.613,
        "meta_arg_of_pericenter": 311.6715,
        "meta_mean_anomaly": 45.5094,
        "meta_ephemeris_type": 0,
        "meta_classification_type": "U",
        "meta_norad_cat_id": 31537,
        "meta_element_set_no": 999,
        "meta_rev_at_epoch": 93345,
        "meta_bstar": 0.0015959458,
        "meta_mean_motion_dot": 6.271e-05,
        "meta_mean_motion_ddot": 0,
        "tle_line1": "1 31537U 99025BYC 25351.22260478  .00006271  00000+0  15959-2 0  9997",
        "tle_line2": "2 31537  99.2923 144.6130 0348658 311.6715  45.5094 14.20381153933451"
      },
      "geometry": {
        "type": "Point",
        "coordinates": [
          120.76445673587675,
          68.80561898853023
        ]
      }
    },
    {
      "type": "Feature",
      "properties": {
        "norad_id": 31538,
        "name": "FENGYUN 1C DEB",
        "group": "fengyun-1c-debris",
        "lat": 62.68616765860092,
        "lon": -154.99907560239845,
        "alt_km": 575.6007751503885,
        "timestamp": "2025-12-18T07:01:54.872731+00:00",
        "meta_object_name": "FENGYUN 1C DEB",
        "meta_object_id": "1999-025BYD",
        "meta_epoch": "2025-11-18T21:37:36.814656",
        "meta_mean_motion": 14.96885168,
        "meta_eccentricity": 0.00235351,
        "meta_inclination": 98.2479,
        "meta_ra_of_asc_node": 190.2519,
        "meta_arg_of_pericenter": 356.6213,
        "meta_mean_anomaly": 3.4844,
        "meta_ephemeris_type": 0,
        "meta_classification_type": "U",
        "meta_norad_cat_id": 31538,
        "meta_element_set_no": 999,
        "meta_rev_at_epoch": 66646,
        "meta_bstar": 0.0047226763,
        "meta_mean_motion_dot": 0.00054817,
        "meta_mean_motion_ddot": 0,
        "tle_line1": "1 31538U 99025BYD 25322.90112054  .00054817  00000+0  47227-2 0  9999",
        "tle_line2": "2 31538  98.2479 190.2519 0023535 356.6213   3.4844 14.96885168666469"
      },
      "geometry": {
        "type": "Point",
        "coordinates": [
          -154.99907560239845,
          62.68616765860092
        ]
      }
    },
    {
      "type": "Feature",
      "properties": {
        "norad_id": 31540,
        "name": "FENGYUN 1C DEB",
        "group": "fengyun-1c-debris",
        "lat": -52.40743609326596,
        "lon": -39.668009236487734,
        "alt_km": 602.3986613286825,
        "timestamp": "2025-12-18T07:01:54.872741+00:00",
        "meta_object_name": "FENGYUN 1C DEB",
        "meta_object_id": "1999-025BYF",
        "meta_epoch": "2025-12-17T16:50:42.753408",
        "meta_mean_motion": 14.65440334,
        "meta_eccentricity": 0.0176642,
        "meta_inclination": 99.0563,
        "meta_ra_of_asc_node": 151.6373,
        "meta_arg_of_pericenter": 285.8233,
        "meta_mean_anomaly": 72.3556,
        "meta_ephemeris_type": 0,
        "meta_classification_type": "U",
        "meta_norad_cat_id": 31540,
        "meta_element_set_no": 999,
        "meta_rev_at_epoch": 98374,
        "meta_bstar": 0.00065590191,
        "meta_mean_motion_dot": 4.401e-05,
        "meta_mean_motion_ddot": 0,
        "tle_line1": "1 31540U 99025BYF 25351.70188372  .00004401  00000+0  65590-3 0  9996",
        "tle_line2": "2 31540  99.0563 151.6373 0176642 285.8233  72.3556 14.65440334983743"
      },
      "geometry": {
        "type": "Point",
        "coordinates": [
          -39.668009236487734,
          -52.40743609326596
        ]
      }
    }
  ]
}